{"type": "FeatureCollection", "name": "sgg", "note": "부산 구·군 경계 + 라벨 대표점 (줌 L2)", "source": "통계청 SGIS 행정동 경계(공공누리 제1유형) / vuski·admdongkor (CC BY 4.0)", "features": [{"type": "Feature", "properties": {"code": "26110", "sgg_nm": "중구", "dong_count": 9, "label_lon": 129.031131, "label_lat": 35.106436}, "geometry": {"type": "Polygon", "coordinates": [[[129.02621094402838, 35.09567902315304], [129.02867277741564, 35.096368901782796], [129.03389459293336, 35.09694044076042], [129.03605078546966, 35.09636390192045], [129.03666950464086, 35.09466438477779], [129.03692475467798, 35.09472353010395], [129.03631505397712, 35.09642289270006], [129.0382160754761, 35.09700868573582], [129.0393019152104, 35.09510043095617], [129.0395042524266, 35.09522517906751], [129.03809601149175, 35.098007183934655], [129.037980196949, 35.103892512566816], [129.03822575608223, 35.10434790156961], [129.03967360893532, 35.10439286268618], [129.03886909859048, 35.10355492774449], [129.04224004979767, 35.10191413106284], [129.04367586047277, 35.103410637547064], [129.0398182034819, 35.10584181288946], [129.04036624750276, 35.10703056658817], [129.04373774886275, 35.10492439441351], [129.0445525636584, 35.105805842610884], [129.04088010913745, 35.10811134155702], [129.0427298111509, 35.11072215883535], [129.03820311018, 35.11200440879225], [129.032649785004, 35.115987180639884], [129.028223563291, 35.11733520105265], [129.02613312823212, 35.11677771480585], [129.02693127888296, 35.115945906162004], [129.02817876343198, 35.11567353238125], [129.0284378860708, 35.11267891081947], [129.02779341053562, 35.111121869158644], [129.0270478270189, 35.11049540178221], [129.02644134577582, 35.11109330592511], [129.02293330437362, 35.10897200871045], [129.0212269833295, 35.10330608027158], [129.02155015581673, 35.101912113158015], [129.02423299894602, 35.10007900902957], [129.02621094402838, 35.09567902315304]]]}}, {"type": "Feature", "properties": {"code": "26140", "sgg_nm": "서구", "dong_count": 13, "label_lon": 129.019552, "label_lat": 35.094588}, "geometry": {"type": "MultiPolygon", "coordinates": [[[[129.0148884952586, 35.04709392328817], [129.0158056817169, 35.046826176056555], [129.01609068769687, 35.04735573185724], [129.01546508171913, 35.04769292376593], [129.0159158063969, 35.04827875186748], [129.0157393886407, 35.04934813947908], [129.0151390472615, 35.050132882727894], [129.014394833089, 35.05035024755789], [129.01391158412605, 35.04995211076924], [129.013715890268, 35.04788864648471], [129.0148884952586, 35.04709392328817]]], [[[129.0044408963209, 35.0784448629278], [129.00551501021766, 35.07110188491043], [129.00937487935263, 35.065953603185335], [129.0119790837457, 35.06486400248598], [129.0114791873151, 35.063145725374966], [129.0083763782547, 35.062803688603935], [129.0085519325226, 35.06067543683533], [129.01063210726338, 35.052449461282364], [129.01006018126012, 35.05152711555844], [129.0083646767923, 35.0508106817845], [129.00851006022566, 35.05054995192165], [129.0153214749445, 35.052604651022016], [129.01625122834935, 35.053999552974496], [129.0160678655245, 35.0546362367447], [129.01547463516232, 35.05478917973837], [129.0159003003887, 35.056928285842005], [129.01871565227916, 35.05912987585638], [129.02171700709135, 35.060796863905125], [129.02227748343276, 35.06234094564348], [129.02092196177423, 35.06891649614125], [129.01716981602112, 35.072138886186714], [129.01597168618292, 35.074552762015394], [129.0178398341173, 35.076750344186514], [129.01953306837763, 35.07753582564397], [129.02118649905267, 35.07750829136169], [129.0221452291423, 35.07492098730334], [129.02459226925455, 35.07608456621619], [129.02664476002246, 35.08530113217267], [129.0260521352617, 35.086845636730835], [129.02525511343853, 35.09349654792129], [129.02621094402838, 35.09567902315304], [129.02423299894602, 35.10007900902957], [129.02155015581673, 35.101912113158015], [129.0212269833295, 35.10330608027158], [129.02293330437362, 35.10897200871045], [129.02644134577582, 35.11109330592511], [129.0270478270189, 35.11049540178221], [129.02779341053562, 35.111121869158644], [129.0284378860708, 35.11267891081947], [129.02817876343198, 35.11567353238125], [129.02693127888296, 35.115945906162004], [129.02613312823212, 35.11677771480585], [129.02459285799694, 35.11870699558109], [129.0253764415973, 35.12196072295201], [129.02602801068727, 35.12912308810439], [129.02566114046175, 35.13076988766731], [129.0241203041084, 35.13402281469792], [129.0208129052661, 35.13684964740355], [129.01836954745463, 35.136048317566114], [129.01708845374898, 35.1360213201635], [129.01132236660203, 35.13818912292582], [129.00657510711716, 35.13939482809143], [129.00451760683498, 35.1395132926308], [129.0029509525376, 35.13492983407354], [129.0022473982334, 35.12742898655021], [129.00160075083318, 35.12650059096157], [128.99960902451832, 35.12585049850773], [128.9984364338778, 35.124674673858074], [128.99796856024992, 35.12254815787114], [129.0005108766161, 35.120201283690506], [129.0001455828842, 35.11838440909231], [129.00116361732503, 35.11422631698106], [129.00308758969084, 35.11409292109216], [129.0038037129357, 35.11324993412613], [129.00327423016125, 35.11180892870074], [129.00371121474373, 35.11067010633896], [129.00628224186983, 35.10946941892566], [129.01051364927392, 35.10559260281932], [129.007432619249, 35.10182909615678], [129.00674859070077, 35.099093306672636], [129.01025765278888, 35.09928147664126], [129.01430048622598, 35.09318594727336], [129.01401555533775, 35.089189657004084], [129.013174404632, 35.08809081487248], [129.01163096171894, 35.08155531126193], [129.01131551486193, 35.0768630046373], [129.00834753889856, 35.07824138898025], [129.0062537658466, 35.0786305608276], [129.0044408963209, 35.0784448629278]]]]}}, {"type": "Feature", "properties": {"code": "26170", "sgg_nm": "동구", "dong_count": 12, "label_lon": 129.045348, "label_lat": 35.1281}, "geometry": {"type": "Polygon", "coordinates": [[[129.02613312823212, 35.11677771480585], [129.028223563291, 35.11733520105265], [129.032649785004, 35.115987180639884], [129.03820311018, 35.11200440879225], [129.0427298111509, 35.11072215883535], [129.04509842599035, 35.1156815807148], [129.04983024202616, 35.11297791851284], [129.0508718485963, 35.11404067470242], [129.0467137826198, 35.11662495759787], [129.04785990833602, 35.119026027188504], [129.052801159818, 35.11589958853914], [129.05281807001643, 35.11761423686878], [129.04857338338374, 35.12048962567982], [129.0500031982967, 35.12353127089618], [129.05270669290672, 35.12567252791694], [129.05454586808386, 35.12581039736536], [129.0553279538692, 35.12531762937498], [129.05525090853658, 35.1229337739466], [129.05253025341025, 35.12069349408506], [129.05273947627137, 35.120125422565714], [129.05603771966514, 35.1179864214885], [129.06486731932878, 35.127265456876714], [129.06465331786407, 35.128935105305914], [129.06529893880335, 35.129623107486516], [129.06609470918582, 35.136977523857595], [129.06448312933315, 35.141392386501934], [129.05253200679826, 35.142085269489506], [129.0517334955218, 35.14230460021694], [129.05084673457657, 35.14335069263142], [129.045301790826, 35.14598227385517], [129.04122079602817, 35.14612820717722], [129.0391302421644, 35.14397362013774], [129.03936863126353, 35.142582764130054], [129.03880779358678, 35.14071718043759], [129.0346921078769, 35.137276788004414], [129.03312659718404, 35.137060487724916], [129.03178216556879, 35.13750723588042], [129.02828492429944, 35.13663245195854], [129.0270226263044, 35.135353856036325], [129.0241203041084, 35.13402281469792], [129.02566114046175, 35.13076988766731], [129.02602801068727, 35.12912308810439], [129.0253764415973, 35.12196072295201], [129.02459285799694, 35.11870699558109], [129.02613312823212, 35.11677771480585]]]}}, {"type": "Feature", "properties": {"code": "26200", "sgg_nm": "영도구", "dong_count": 11, "label_lon": 129.066035, "label_lat": 35.075306}, "geometry": {"type": "Polygon", "coordinates": [[[129.03666950464086, 35.09466438477779], [129.03605780145315, 35.0945162401904], [129.0367085491223, 35.09263950913351], [129.03740893464285, 35.09238198018995], [129.0370986358608, 35.09187216050464], [129.03333536690232, 35.093338423453005], [129.03312854266, 35.09385487609015], [129.03357122428315, 35.09399873730596], [129.0331309208288, 35.094369971163715], [129.03161483031937, 35.09403539690219], [129.0313748529301, 35.09224282499297], [129.03471378597376, 35.08512071364402], [129.03988638379454, 35.08073177231655], [129.0408546859814, 35.081005071287294], [129.04177169213045, 35.080505238702315], [129.05175715947638, 35.07284250738603], [129.05201491934986, 35.07214930412287], [129.056874097004, 35.069404533504134], [129.06266900093178, 35.069490108037236], [129.0650917205994, 35.068391021534396], [129.06823942899652, 35.0657659732011], [129.06861369085917, 35.06498975278993], [129.0664376442971, 35.06422556596313], [129.06642137279437, 35.06251388888954], [129.06811029472468, 35.062163117832576], [129.07040053471204, 35.0595908562092], [129.07084353986636, 35.05848088519553], [129.07213378039089, 35.05870514758565], [129.0739327743213, 35.0604218463886], [129.07542665965934, 35.060795051513885], [129.07725765927427, 35.06038842741337], [129.0807297458055, 35.05625246261821], [129.08163050663802, 35.054006692420394], [129.081392400905, 35.05245081794363], [129.0820087092498, 35.05101786904055], [129.0828241798112, 35.05039004124796], [129.0861401371516, 35.049283807611765], [129.08766909074816, 35.04943238354505], [129.0908770281371, 35.050717929029034], [129.09238575021695, 35.05174121749358], [129.09650163855255, 35.05971983809037], [129.09386959934116, 35.060770703892366], [129.09220822436703, 35.06097052019588], [129.08770325367612, 35.062936562753364], [129.08677426429244, 35.063805766628654], [129.08424469125157, 35.06819829962453], [129.08148880027883, 35.069300235034525], [129.08014546155107, 35.070606618832], [129.07997959519076, 35.071384545121525], [129.08553517035213, 35.073939670489835], [129.08656092572625, 35.072731844254605], [129.09094395158382, 35.074211753952625], [129.0942659818991, 35.077420685080064], [129.09494563093943, 35.07896520939922], [129.09427059287262, 35.08069260653919], [129.0905022449656, 35.080377303303756], [129.0885969519089, 35.07971471558563], [129.08332667287016, 35.07951883785624], [129.08350887474776, 35.07611980355497], [129.08492386409685, 35.074491201127486], [129.08428764400523, 35.07420303580277], [129.07773826694967, 35.08363723788417], [129.0790288763826, 35.08490468900443], [129.07095668973585, 35.09394732627968], [129.06843392637214, 35.0959886495736], [129.05794213264312, 35.10124062215544], [129.05142568703323, 35.09976376259123], [129.05143245520634, 35.09858943863763], [129.04985993603168, 35.098252959936254], [129.0480492970573, 35.096411923896675], [129.04900890952442, 35.09572445500769], [129.0488140276164, 35.09530728461874], [129.04700498120116, 35.09582958420945], [129.0464697512317, 35.096801995466556], [129.04536495219048, 35.097186383834774], [129.0395042524266, 35.09522517906751], [129.0393019152104, 35.09510043095617], [129.03849708055327, 35.09362267838633], [129.03692475467798, 35.09472353010395], [129.03666950464086, 35.09466438477779]]]}}, {"type": "Feature", "properties": {"code": "26230", "sgg_nm": "부산진구", "dong_count": 20, "label_lon": 129.045865, "label_lat": 35.167022}, "geometry": {"type": "Polygon", "coordinates": [[[129.01132236660203, 35.13818912292582], [129.01708845374898, 35.1360213201635], [129.01836954745463, 35.136048317566114], [129.0208129052661, 35.13684964740355], [129.0241203041084, 35.13402281469792], [129.0270226263044, 35.135353856036325], [129.02828492429944, 35.13663245195854], [129.03178216556879, 35.13750723588042], [129.03312659718404, 35.137060487724916], [129.0346921078769, 35.137276788004414], [129.03880779358678, 35.14071718043759], [129.03936863126353, 35.142582764130054], [129.0391302421644, 35.14397362013774], [129.04122079602817, 35.14612820717722], [129.045301790826, 35.14598227385517], [129.05084673457657, 35.14335069263142], [129.0517334955218, 35.14230460021694], [129.05253200679826, 35.142085269489506], [129.06448312933315, 35.141392386501934], [129.06319730675162, 35.143558435524035], [129.0633341325516, 35.14869346032267], [129.06677015286203, 35.147784945504625], [129.07134350926506, 35.14877766571594], [129.0798726982041, 35.15269661804671], [129.08293072250794, 35.15823841213367], [129.0820334198332, 35.15947867215036], [129.08088515843897, 35.15971082201667], [129.07851942589934, 35.162416696134976], [129.07885434069456, 35.16573285715992], [129.07929423261035, 35.16666806021193], [129.08081055997448, 35.167741894365136], [129.08192432748382, 35.171744974445275], [129.07553767481735, 35.177305052988125], [129.07190730762048, 35.17958722641382], [129.07194289180015, 35.177935657163935], [129.07026728099098, 35.175833357740096], [129.06734108929712, 35.17690107955667], [129.06296520189372, 35.17748983675622], [129.0627278682078, 35.178697763504694], [129.061656377898, 35.18025331078587], [129.0612026480533, 35.183892703158996], [129.05664071246315, 35.18446486374092], [129.05396744224095, 35.18432487696533], [129.05203714806433, 35.18477676258272], [129.05096544903554, 35.185797890528434], [129.04697401242035, 35.19185820508527], [129.04768709934498, 35.194205354841635], [129.0438683820718, 35.19838776771251], [129.03955215930657, 35.199500133369256], [129.03477026690567, 35.1981703390153], [129.03380990869755, 35.197623863181526], [129.03194221826087, 35.195268256437295], [129.02752960105158, 35.1935051745276], [129.02549974111307, 35.19340832866706], [129.02464219915262, 35.1913683133234], [129.02114382379534, 35.187751167562425], [129.02174892241595, 35.18351552150814], [129.0238044237239, 35.183040099717886], [129.02363801738082, 35.1809168091243], [129.0225151278537, 35.17911186863452], [129.02149994647763, 35.17831970499822], [129.01952145131978, 35.179856428792796], [129.017860201483, 35.17932587505381], [129.01138299083289, 35.17411431954438], [129.01017323862936, 35.17360665196828], [129.01009003820303, 35.17035940934349], [129.01170244925513, 35.16880581176889], [129.01169902395307, 35.1673751990749], [129.01284353539765, 35.16567416154622], [129.01102514991956, 35.162724140046876], [129.0106414375882, 35.160154222405225], [129.01522085159675, 35.15666168272065], [129.01594406761035, 35.15571202634452], [129.01667393801887, 35.15281118273201], [129.01619424245249, 35.148249576671134], [129.01567789151815, 35.14692635804637], [129.01614903457846, 35.142240310374774], [129.01309770220325, 35.138716019297384], [129.01132236660203, 35.13818912292582]]]}}, {"type": "Feature", "properties": {"code": "26260", "sgg_nm": "동래구", "dong_count": 13, "label_lon": 129.0797, "label_lat": 35.205463}, "geometry": {"type": "Polygon", "coordinates": [[[129.04768709934498, 35.194205354841635], [129.0530596726225, 35.19207988548005], [129.05576764418285, 35.19237489372974], [129.05988447404104, 35.19130314259164], [129.06461965061138, 35.19224559539907], [129.06420308058964, 35.19370123928072], [129.0712285541053, 35.19512139594784], [129.0742621369585, 35.19805739598705], [129.07791497787318, 35.199403849158415], [129.08032678260702, 35.19926690530353], [129.08405601660903, 35.19562783030736], [129.08637208925722, 35.194383233683894], [129.1023705514548, 35.190985270951636], [129.10838087354938, 35.19041339155272], [129.11051622168225, 35.18964437792335], [129.11240573054803, 35.1862657275411], [129.11515612736235, 35.18318347003634], [129.11551643510097, 35.18783048750806], [129.11419861514014, 35.19308778771091], [129.11423504210177, 35.19418918265303], [129.11520816891635, 35.198913409596756], [129.1163781122603, 35.2010936506585], [129.11505869894745, 35.201767396100635], [129.1137764384947, 35.20176638745593], [129.11138457166993, 35.20386730951491], [129.11016251502542, 35.20705855475539], [129.11004041344015, 35.210114243992706], [129.10863660538115, 35.21018527587185], [129.1063593105263, 35.20959120275214], [129.10232916060872, 35.211345122957006], [129.1025243550962, 35.21220212261949], [129.1018710391907, 35.21254637842011], [129.09563465939607, 35.21453932852696], [129.0943588901752, 35.21543237203513], [129.09399480101146, 35.214961450148934], [129.09238784394745, 35.21650163124502], [129.0883288479166, 35.21768181986481], [129.08655780409111, 35.21705278068723], [129.0849441794833, 35.21792228895111], [129.08726030886325, 35.221656807349376], [129.08508609182022, 35.22193056951878], [129.08191635633665, 35.22450954152047], [129.0806954070333, 35.223831458925645], [129.07749712487663, 35.22635084303024], [129.0715536002567, 35.22627084401822], [129.0688204752838, 35.22508350726712], [129.06653147811932, 35.225297039415], [129.06648893588255, 35.22648170128206], [129.06611254399343, 35.22687280304722], [129.0622247605961, 35.22682713936157], [129.06019953793606, 35.226222523215064], [129.05925702388717, 35.224037427131506], [129.05779366239855, 35.22272618738611], [129.05627482274767, 35.21908209225564], [129.05134029464645, 35.213239095513515], [129.05145087877557, 35.211363915459664], [129.05097667319382, 35.208442265063105], [129.05039708963582, 35.207216282351425], [129.04510416107487, 35.20197244674127], [129.04358028545965, 35.202162259502074], [129.0435319231323, 35.19929056913392], [129.0438683820718, 35.19838776771251], [129.04768709934498, 35.194205354841635]]]}}, {"type": "Feature", "properties": {"code": "26290", "sgg_nm": "남구", "dong_count": 17, "label_lon": 129.093637, "label_lat": 35.129882}, "geometry": {"type": "Polygon", "coordinates": [[[129.06529893880335, 35.129623107486516], [129.06642302173697, 35.12759459036537], [129.0667823415887, 35.125889712260715], [129.06533904852375, 35.12289313843005], [129.0686640114218, 35.1216831968647], [129.06997938936243, 35.123132632046946], [129.07299837711597, 35.12217114825167], [129.0694962264335, 35.118295271496386], [129.07101308202905, 35.11737589405409], [129.07226637656782, 35.118728318226005], [129.07324736862296, 35.11813584221814], [129.07377788419188, 35.11674639795172], [129.06989256467304, 35.11384117952146], [129.06719791808808, 35.107693980812414], [129.07491424348004, 35.1035778009261], [129.0875861941577, 35.10358801735162], [129.08737886663224, 35.107138742462304], [129.09181331926223, 35.10779364320243], [129.093735124042, 35.10753427413525], [129.09459587195863, 35.09912553115897], [129.09755709483372, 35.09931701992266], [129.09953292483613, 35.09822774743447], [129.10423329981722, 35.09863848720758], [129.10879098637042, 35.10233076859715], [129.1105288462438, 35.10110474001168], [129.11294935435782, 35.10298579875151], [129.11389460850393, 35.10160903658405], [129.11571785986513, 35.10013642359432], [129.12349589161863, 35.09886033409166], [129.12521065050242, 35.10086001206567], [129.1239135028708, 35.10143399453813], [129.1237438247094, 35.10195065607857], [129.12782689334054, 35.10963088520554], [129.12702722519055, 35.11981432205294], [129.1249448234254, 35.12217264776362], [129.12286900855557, 35.1262912195908], [129.12107501989738, 35.133274051002275], [129.12061039938683, 35.133949727165444], [129.11717242911845, 35.13027227377718], [129.1166465768182, 35.13014169384775], [129.11521098936876, 35.13096598140479], [129.11689253565845, 35.132863081136016], [129.11181015089383, 35.135477062726224], [129.1048844310384, 35.14020888216203], [129.10231680476866, 35.1428026922264], [129.10341169818932, 35.144359311918144], [129.10334244447125, 35.14576404338582], [129.1016414105136, 35.150693546686554], [129.0982340519225, 35.155340560923136], [129.09482351648995, 35.16174060161667], [129.09371244843786, 35.160647318247555], [129.09276629017978, 35.16031717781803], [129.0893935190093, 35.160809261946916], [129.08293072250794, 35.15823841213367], [129.0798726982041, 35.15269661804671], [129.07134350926506, 35.14877766571594], [129.06677015286203, 35.147784945504625], [129.0633341325516, 35.14869346032267], [129.06319730675162, 35.143558435524035], [129.06448312933315, 35.141392386501934], [129.06609470918582, 35.136977523857595], [129.06529893880335, 35.129623107486516]]]}}, {"type": "Feature", "properties": {"code": "26320", "sgg_nm": "북구", "dong_count": 13, "label_lon": 129.021847, "label_lat": 35.233865}, "geometry": {"type": "Polygon", "coordinates": [[[129.02114382379534, 35.187751167562425], [129.02464219915262, 35.1913683133234], [129.02549974111307, 35.19340832866706], [129.02752960105158, 35.1935051745276], [129.03194221826087, 35.195268256437295], [129.03380990869755, 35.197623863181526], [129.03477026690567, 35.1981703390153], [129.03955215930657, 35.199500133369256], [129.0438683820718, 35.19838776771251], [129.0435319231323, 35.19929056913392], [129.04358028545965, 35.202162259502074], [129.04510416107487, 35.20197244674127], [129.05039708963582, 35.207216282351425], [129.05097667319382, 35.208442265063105], [129.05145087877557, 35.211363915459664], [129.05134029464645, 35.213239095513515], [129.05627482274767, 35.21908209225564], [129.05779366239855, 35.22272618738611], [129.05925702388717, 35.224037427131506], [129.06019953793606, 35.226222523215064], [129.0599741280662, 35.22678923393857], [129.06057262199613, 35.228470491248515], [129.05971076477323, 35.23002343231531], [129.0515895500284, 35.22964869902793], [129.04912036421635, 35.230865738425344], [129.04609125202282, 35.23131448893426], [129.0457434506553, 35.233342951874825], [129.04915549963502, 35.23802971527923], [129.04881477225084, 35.23847855902306], [129.04992167610965, 35.23897988548466], [129.051070947826, 35.24102008674407], [129.0496092363749, 35.24512957946922], [129.0482823840405, 35.246027215863954], [129.0460970367743, 35.24627191654039], [129.0455222494302, 35.247018017539546], [129.0454152960703, 35.252135943974984], [129.04700457565738, 35.254228686995944], [129.0485514320086, 35.25506816052614], [129.0477920449618, 35.256461275156155], [129.04673467740338, 35.25702662228451], [129.03765103622203, 35.2597186859331], [129.03609692814624, 35.259718460588694], [129.0377532167463, 35.26211965556638], [129.03912203092867, 35.2628362515363], [129.0415999361129, 35.26332996291464], [129.04213125428126, 35.26400846802992], [129.0425811218151, 35.26863911046401], [129.04687966452582, 35.273768146964635], [129.0505678912383, 35.28005598956564], [129.0485884575432, 35.280388967165045], [129.04410578115133, 35.280313963455185], [129.04211375027165, 35.279093933210376], [129.03923404218543, 35.27588522443608], [129.03406497908645, 35.27690570156166], [129.03009425108138, 35.278520717067515], [129.02617760938926, 35.27807025839519], [129.02037523536993, 35.27584342604297], [129.0166697326737, 35.27527676291088], [129.01262517746397, 35.273304750109], [129.01286854671827, 35.269627361509954], [129.01097948664932, 35.26162224955504], [129.00146276156926, 35.24212206595893], [128.99860195522393, 35.23700314002444], [128.99760664208236, 35.23438729442228], [128.9958135167809, 35.207936038012726], [128.98928172982468, 35.20250427236374], [128.99178006158067, 35.20096171643757], [128.98818504717465, 35.19723851758359], [128.987946053341, 35.1959047485512], [128.99111562695626, 35.19382240168314], [128.99391935025963, 35.195261479659656], [128.9949559413762, 35.19479260661552], [128.99547822703062, 35.19385724280257], [128.9982073183999, 35.19230153181104], [129.00060713934948, 35.19166289835499], [129.00171348937323, 35.19280614737444], [129.00769630669944, 35.19249831429592], [129.00720712199106, 35.190451863483986], [129.0082600286448, 35.189007483327195], [129.01599056537117, 35.18930747563812], [129.01937893982827, 35.18777817432737], [129.02114382379534, 35.187751167562425]]]}}, {"type": "Feature", "properties": {"code": "26350", "sgg_nm": "해운대구", "dong_count": 18, "label_lon": 129.146118, "label_lat": 35.199618}, "geometry": {"type": "Polygon", "coordinates": [[[129.1307458582595, 35.14771373119066], [129.13650135985554, 35.15375586288658], [129.13735844840832, 35.155664343605295], [129.13691281682534, 35.15770738714258], [129.13408161895987, 35.162168352300576], [129.1357397370835, 35.161233329483956], [129.14044939922914, 35.15707469529646], [129.1414050708729, 35.155059500294925], [129.14230157127926, 35.154452042343266], [129.1463709897158, 35.153367692520185], [129.14725995761694, 35.15369374796643], [129.14766653995738, 35.15576371645938], [129.14838817780628, 35.15642139774996], [129.1527871550036, 35.15735199105733], [129.15112412731435, 35.15652301790449], [129.14990933958478, 35.15270646098666], [129.15056078953748, 35.151753441806264], [129.1530423180822, 35.151884406316036], [129.154021297688, 35.15443370365972], [129.15496754108474, 35.154863603732686], [129.15464827738987, 35.1560659889771], [129.15489354677047, 35.156558205182215], [129.1556864056299, 35.157008808019846], [129.16062853510778, 35.158571691998944], [129.16444518646745, 35.15915691416499], [129.168566698037, 35.15942452204614], [129.169807991037, 35.159164636215806], [129.17338519452414, 35.156853719675894], [129.17769910904642, 35.15489170375136], [129.18064441528435, 35.15469135243845], [129.18222849558975, 35.155116811668904], [129.1846737503933, 35.156757798006716], [129.18600158988608, 35.158955659185445], [129.18778998694853, 35.159715611413986], [129.19112413788474, 35.160112035179175], [129.1922883719064, 35.15984173384553], [129.1941222642016, 35.16108144793323], [129.19619529205843, 35.164267341736476], [129.19606712547846, 35.16501973996869], [129.19745447265225, 35.16874378615414], [129.19807285334952, 35.17333925053678], [129.19739014039888, 35.175884229128044], [129.1980396237448, 35.17717983494808], [129.19967833849012, 35.17907702843202], [129.2027287658894, 35.18046330080017], [129.20452635768018, 35.18063314827473], [129.2049426284505, 35.17905451666944], [129.2056723429685, 35.179114296643114], [129.20733453321046, 35.180068993094125], [129.20792222656215, 35.181944959030275], [129.20689238417373, 35.185870877075324], [129.20631738263685, 35.19127882044517], [129.20744897908023, 35.19455919636432], [129.20666744753996, 35.19705395610579], [129.20426157246294, 35.19832982703446], [129.1994508641014, 35.20068735078913], [129.19838813643153, 35.200834159026975], [129.19687434366918, 35.20032305102213], [129.19385862770395, 35.19810861708671], [129.19351988964092, 35.195069859231694], [129.19081052450375, 35.19291493859557], [129.18904466404177, 35.18995761388205], [129.1881888766853, 35.18933556689751], [129.1837791328208, 35.189719930277654], [129.1833225600009, 35.19072035829853], [129.18564304115662, 35.195486684932334], [129.18262012826793, 35.19798385738416], [129.1796338664037, 35.197900141902345], [129.1724720972387, 35.20202302077535], [129.16936951017513, 35.200984167907514], [129.16504002215248, 35.20311132372167], [129.16425470000857, 35.2048478062906], [129.1629818543271, 35.20597220737831], [129.16026027283183, 35.20629311485381], [129.15975925916305, 35.20969256606286], [129.16045481295413, 35.21183722750348], [129.16203139313677, 35.21256264896425], [129.16474023869512, 35.214936315012125], [129.1662144143843, 35.21846920908729], [129.16640185179898, 35.22083683167936], [129.16951380195485, 35.226088760509214], [129.16926998030365, 35.227668744179134], [129.16734760118234, 35.229677721426185], [129.16163548896114, 35.23393790292121], [129.15794728542687, 35.23534553754519], [129.15513091694905, 35.237010450810004], [129.15569070203927, 35.24327102192388], [129.15496231726954, 35.24505499361861], [129.1499596651317, 35.24761368700551], [129.14811870309077, 35.247270347106166], [129.1468404501671, 35.24939928671586], [129.14428701915543, 35.25072721185762], [129.14432028323984, 35.2499125574283], [129.14361404657424, 35.24868908515951], [129.14376194322003, 35.24685794126952], [129.14129401985372, 35.24415578503574], [129.14160130014352, 35.24259419452394], [129.14125331849, 35.24188826906887], [129.13728158091064, 35.23846698457584], [129.13585279181572, 35.2365405623528], [129.1344567230455, 35.236829424078394], [129.1309907644054, 35.235240029562235], [129.13022787049496, 35.23327010358183], [129.1301287426499, 35.232280612622326], [129.13056186522633, 35.23126390063014], [129.1271824593931, 35.227681267802915], [129.1258440705305, 35.22694133230776], [129.12367577362005, 35.22710663725112], [129.11896114224695, 35.22483532157928], [129.1180832474061, 35.22389640367007], [129.11734727780495, 35.222446015674336], [129.1172960965337, 35.22047473229356], [129.11908287723043, 35.214590526895776], [129.11891004939335, 35.21363658538754], [129.116538080089, 35.21392084132355], [129.1134495069031, 35.21294038318517], [129.11116166947295, 35.211689424583234], [129.11032400973258, 35.21097746179082], [129.11004041344015, 35.210114243992706], [129.11016251502542, 35.20705855475539], [129.11138457166993, 35.20386730951491], [129.1137764384947, 35.20176638745593], [129.11505869894745, 35.201767396100635], [129.1163781122603, 35.2010936506585], [129.11520816891635, 35.198913409596756], [129.11423504210177, 35.19418918265303], [129.11419861514014, 35.19308778771091], [129.11551643510097, 35.18783048750806], [129.1184497281304, 35.18178225401597], [129.119261930982, 35.178500453951436], [129.119258917037, 35.17675110664881], [129.12249905533562, 35.1730217184355], [129.12317120085623, 35.171051876632454], [129.1265833212837, 35.16602617330569], [129.13095017811176, 35.16328892553498], [129.13245262337935, 35.161707657975136], [129.1329182047037, 35.161915390998345], [129.135867789987, 35.1582673098636], [129.13666352339698, 35.15673118021629], [129.13672866488454, 35.15562412297434], [129.13594765342904, 35.15395827285188], [129.1303239315999, 35.147985067951566], [129.1307458582595, 35.14771373119066]]]}}, {"type": "Feature", "properties": {"code": "26380", "sgg_nm": "사하구", "dong_count": 16, "label_lon": 128.965231, "label_lat": 35.079385}, "geometry": {"type": "MultiPolygon", "coordinates": [[[[128.96860411950763, 35.03058363353959], [128.96872008287275, 35.029854663077764], [128.97108542006168, 35.02932682058217], [128.9726613699132, 35.029657264705236], [128.97284049544044, 35.03107786566937], [128.97383688374913, 35.032948815987254], [128.9735697326326, 35.03397653677524], [128.97276455594687, 35.03468573613845], [128.9714062884404, 35.034494113563234], [128.96860411950763, 35.03058363353959]]], [[[128.9744081971428, 35.043640597772516], [128.97598397899372, 35.0432651244361], [128.97655714430533, 35.04415646849254], [128.97501584653108, 35.045688517824175], [128.9733191528833, 35.04622782498569], [128.97214482038692, 35.0460864282376], [128.97214807559467, 35.0452835583699], [128.9744081971428, 35.043640597772516]]], [[[128.92535444740878, 35.093411534530844], [128.93297889813633, 35.08412424361001], [128.93851606290053, 35.07810166840805], [128.95090449520768, 35.078017227783455], [128.95688712765832, 35.05447882920614], [128.9556863535575, 35.053095674475955], [128.9558950174769, 35.052427973280885], [128.958348551403, 35.04795944772298], [128.95922338678434, 35.0473183452424], [128.96207243243157, 35.04736827839425], [128.96450499177186, 35.046210686959256], [128.9644684095756, 35.04228658393903], [128.9626479687144, 35.03853381196701], [128.964619494733, 35.03392889891465], [128.9656766475302, 35.032636689770484], [128.96696702745456, 35.03327502989931], [128.96754234723892, 35.0364524564427], [128.97110067335865, 35.03825743794867], [128.97260830834549, 35.040399976145665], [128.9699304948433, 35.04042009759499], [128.97286518409283, 35.04305554741251], [128.97291460652397, 35.04347498497943], [128.96960729095622, 35.044983400607784], [128.96911458632493, 35.04621572401607], [128.96958220800866, 35.04747089286919], [128.97311070268645, 35.04909725579701], [128.97587906890703, 35.04795607765626], [128.9821400319223, 35.04776106534491], [128.9826508395401, 35.05193594330406], [128.98004886583237, 35.05312951308005], [128.97349419356797, 35.053348569893615], [128.97239209730512, 35.05440528505177], [128.97279707324896, 35.05663222792713], [128.97531408989119, 35.05656441268639], [128.97533338606908, 35.055946449197975], [128.97678579419818, 35.055248987669344], [128.97733630570067, 35.0554084732421], [128.97755604184255, 35.05691891870828], [128.98455919395383, 35.05969255961449], [128.98815673178723, 35.05797245321205], [128.9905068495045, 35.052917107819106], [128.99006292537462, 35.05256657834386], [128.98980836207795, 35.050518476715304], [128.99027743067396, 35.04908470769659], [128.99442454631784, 35.04811957323483], [128.99902395380403, 35.048813936198776], [128.99975624853388, 35.047865698242646], [129.00129603740098, 35.048215040820686], [128.99532664990102, 35.06349414343609], [128.99536691327228, 35.07134695985432], [128.9943879792513, 35.07139402649702], [128.99372999655458, 35.07378939939684], [128.99502999518967, 35.07454222783359], [128.99509554162407, 35.07568697841481], [128.99272507217705, 35.08013933896701], [128.99311906615398, 35.08386999399522], [128.9971763716535, 35.08302815557715], [128.99798140643094, 35.08082757863427], [128.9986252810761, 35.0805545382931], [129.0015339622394, 35.08041089923636], [129.0017869184084, 35.081229645416194], [128.99977203532492, 35.08172216554028], [128.99915868116992, 35.083320692223836], [129.00270988293443, 35.0846783191387], [129.0051454785631, 35.08439773346548], [129.00393177878968, 35.081289913932224], [129.0044408963209, 35.0784448629278], [129.0062537658466, 35.0786305608276], [129.00834753889856, 35.07824138898025], [129.01131551486193, 35.0768630046373], [129.01163096171894, 35.08155531126193], [129.013174404632, 35.08809081487248], [129.01401555533775, 35.089189657004084], [129.01430048622598, 35.09318594727336], [129.01025765278888, 35.09928147664126], [129.00674859070077, 35.099093306672636], [129.007432619249, 35.10182909615678], [129.01051364927392, 35.10559260281932], [129.00628224186983, 35.10946941892566], [129.00371121474373, 35.11067010633896], [129.00327423016125, 35.11180892870074], [129.0038037129357, 35.11324993412613], [129.00308758969084, 35.11409292109216], [129.00116361732503, 35.11422631698106], [129.0001455828842, 35.11838440909231], [129.0005108766161, 35.120201283690506], [128.99796856024992, 35.12254815787114], [128.9902410767688, 35.12358687791466], [128.98768908147932, 35.12492769978295], [128.98673530902727, 35.12313275534385], [128.9818915032444, 35.11936390892188], [128.98152764638243, 35.118107061820275], [128.97982418517978, 35.1167540714929], [128.9763030133134, 35.116798036379514], [128.9688955643479, 35.120917048736004], [128.96371102885962, 35.12172427155547], [128.96314635016054, 35.12015636125776], [128.9615002451909, 35.119911661728935], [128.95990797566617, 35.12027791220839], [128.9582558418523, 35.123086602851465], [128.95687902012088, 35.12730608973392], [128.93903768106512, 35.112901215638175], [128.93685640338123, 35.109884367743234], [128.93290465491427, 35.11028433141648], [128.9286561600111, 35.09912628951176], [128.92678299232878, 35.09535729088144], [128.92535444740878, 35.093411534530844]]]]}}, {"type": "Feature", "properties": {"code": "26410", "sgg_nm": "금정구", "dong_count": 16, "label_lon": 129.091515, "label_lat": 35.258293}, "geometry": {"type": "Polygon", "coordinates": [[[129.06019953793606, 35.226222523215064], [129.0622247605961, 35.22682713936157], [129.06611254399343, 35.22687280304722], [129.06648893588255, 35.22648170128206], [129.06653147811932, 35.225297039415], [129.0688204752838, 35.22508350726712], [129.0715536002567, 35.22627084401822], [129.07749712487663, 35.22635084303024], [129.0806954070333, 35.223831458925645], [129.08191635633665, 35.22450954152047], [129.08508609182022, 35.22193056951878], [129.08726030886325, 35.221656807349376], [129.0849441794833, 35.21792228895111], [129.08655780409111, 35.21705278068723], [129.0883288479166, 35.21768181986481], [129.09238784394745, 35.21650163124502], [129.09399480101146, 35.214961450148934], [129.0943588901752, 35.21543237203513], [129.09563465939607, 35.21453932852696], [129.1018710391907, 35.21254637842011], [129.1025243550962, 35.21220212261949], [129.10232916060872, 35.211345122957006], [129.1063593105263, 35.20959120275214], [129.10863660538115, 35.21018527587185], [129.11004041344015, 35.210114243992706], [129.11032400973258, 35.21097746179082], [129.11116166947295, 35.211689424583234], [129.1134495069031, 35.21294038318517], [129.116538080089, 35.21392084132355], [129.11891004939335, 35.21363658538754], [129.11908287723043, 35.214590526895776], [129.1172960965337, 35.22047473229356], [129.11734727780495, 35.222446015674336], [129.1180832474061, 35.22389640367007], [129.11896114224695, 35.22483532157928], [129.12367577362005, 35.22710663725112], [129.1258440705305, 35.22694133230776], [129.1271824593931, 35.227681267802915], [129.13056186522633, 35.23126390063014], [129.1301287426499, 35.232280612622326], [129.13022787049496, 35.23327010358183], [129.1309907644054, 35.235240029562235], [129.1344567230455, 35.236829424078394], [129.13585279181572, 35.2365405623528], [129.13728158091064, 35.23846698457584], [129.14125331849, 35.24188826906887], [129.14160130014352, 35.24259419452394], [129.14129401985372, 35.24415578503574], [129.14376194322003, 35.24685794126952], [129.14361404657424, 35.24868908515951], [129.14432028323984, 35.2499125574283], [129.14428701915543, 35.25072721185762], [129.13923516551816, 35.25415543112416], [129.14000945199842, 35.25715684534395], [129.14112584754795, 35.259433376603134], [129.1408600692582, 35.26017905792926], [129.13940459689405, 35.26035272353695], [129.13642782163583, 35.25942826708823], [129.13020504703502, 35.26005010839832], [129.1260057101869, 35.2619048939383], [129.1224637721463, 35.26153233707611], [129.12008273243816, 35.26031155040715], [129.1193757241296, 35.2621990470576], [129.12137055456571, 35.2695878031311], [129.12201561317232, 35.270832802578305], [129.12439252090897, 35.273322244739305], [129.12542570172567, 35.27672189588661], [129.12513646646565, 35.27840624844063], [129.12419620349647, 35.279476649868904], [129.12392570269233, 35.28040703340495], [129.12640585268923, 35.282999800521075], [129.12982913025536, 35.29033234100405], [129.1298754556232, 35.297588464235744], [129.1296640671979, 35.29800227229718], [129.1221996117302, 35.30150225345867], [129.12083475858412, 35.30193077171007], [129.11601776526172, 35.30218221244042], [129.1089184004478, 35.305068397078145], [129.10620555382917, 35.30620054090735], [129.10386596204296, 35.30617813740602], [129.09700000954916, 35.30353974967768], [129.09077049854025, 35.303571325323595], [129.08910874001845, 35.30314234784233], [129.08653156603387, 35.30147644577722], [129.0731730478537, 35.289942041962505], [129.0694355018217, 35.29006980095527], [129.06511496042341, 35.29150609986618], [129.0629779555761, 35.292782328653615], [129.06013398666815, 35.295554175602426], [129.051862286997, 35.287957060608456], [129.04991276854275, 35.28386243063585], [129.0499483244923, 35.28229804593501], [129.05095808380818, 35.28045554326725], [129.0505678912383, 35.28005598956564], [129.04687966452582, 35.273768146964635], [129.0425811218151, 35.26863911046401], [129.04213125428126, 35.26400846802992], [129.0415999361129, 35.26332996291464], [129.03912203092867, 35.2628362515363], [129.0377532167463, 35.26211965556638], [129.03609692814624, 35.259718460588694], [129.03765103622203, 35.2597186859331], [129.04673467740338, 35.25702662228451], [129.0477920449618, 35.256461275156155], [129.0485514320086, 35.25506816052614], [129.04700457565738, 35.254228686995944], [129.0454152960703, 35.252135943974984], [129.0455222494302, 35.247018017539546], [129.0460970367743, 35.24627191654039], [129.0482823840405, 35.246027215863954], [129.0496092363749, 35.24512957946922], [129.051070947826, 35.24102008674407], [129.04992167610965, 35.23897988548466], [129.04881477225084, 35.23847855902306], [129.04915549963502, 35.23802971527923], [129.0457434506553, 35.233342951874825], [129.04609125202282, 35.23131448893426], [129.04912036421635, 35.230865738425344], [129.0515895500284, 35.22964869902793], [129.05971076477323, 35.23002343231531], [129.06057262199613, 35.228470491248515], [129.0599741280662, 35.22678923393857], [129.06019953793606, 35.226222523215064]]]}}, {"type": "Feature", "properties": {"code": "26440", "sgg_nm": "강서구", "dong_count": 9, "label_lon": 128.870891, "label_lat": 35.112023}, "geometry": {"type": "Polygon", "coordinates": [[[128.99760664208236, 35.23438729442228], [128.99554312774987, 35.23324968795548], [128.99310831871276, 35.23291725683651], [128.98002491008614, 35.228341710942885], [128.97056832668653, 35.22726168237944], [128.95947931357304, 35.225078072812025], [128.95246363516443, 35.22431789183465], [128.9502535768454, 35.22485447959614], [128.9448320866592, 35.22792179440606], [128.94101845603515, 35.22686541811865], [128.9368552523918, 35.22492818898322], [128.92348871431918, 35.21605396989044], [128.91663323994115, 35.21696396515944], [128.91238816085257, 35.22256299901472], [128.91029533752786, 35.22293372040214], [128.90995435987148, 35.22173235386436], [128.90889250040323, 35.220558731545424], [128.9087715205517, 35.221878135599745], [128.910213261697, 35.222941880645514], [128.90953104141997, 35.22308536415739], [128.90504598342622, 35.22007429742726], [128.91022909536053, 35.21501883745479], [128.9088764190504, 35.214790177679056], [128.90494283864686, 35.21534462699782], [128.896597715058, 35.21310603590278], [128.88912017823364, 35.21478451500707], [128.88751558892355, 35.21418798973343], [128.88642199605752, 35.214633001464875], [128.8841424777816, 35.21367929321098], [128.88381426237825, 35.212073772968346], [128.8817526952082, 35.21049538596638], [128.87905662643058, 35.20976298450511], [128.87543301164746, 35.20588594987279], [128.87038897776137, 35.20171224662656], [128.87619059757614, 35.19290817964182], [128.87602011690961, 35.18818346824757], [128.8815648181799, 35.18293809868363], [128.88163483428465, 35.18194579564133], [128.88065328767982, 35.180995225152515], [128.88009855302644, 35.17975846221294], [128.88019930669716, 35.17203049299251], [128.87361689499855, 35.17436394381475], [128.8723536579352, 35.172274289032615], [128.87577172430488, 35.170508609094654], [128.8763869576018, 35.16750347693703], [128.87590715027898, 35.16645735706891], [128.8760224038447, 35.16565285489807], [128.87925755731314, 35.16199323006961], [128.87791996245417, 35.16040896004733], [128.87448355663278, 35.159800008136614], [128.8739140301757, 35.15716001379724], [128.87476139220806, 35.153570741076216], [128.87579125486937, 35.15230881072213], [128.87479492546953, 35.15173458394757], [128.87045458723892, 35.152096449059485], [128.8654529447669, 35.15792088914184], [128.86611222841282, 35.16683920888042], [128.86368996789872, 35.167434108019954], [128.8605449565759, 35.16740969309174], [128.84666424832798, 35.16528233986758], [128.84549074069656, 35.16430616486268], [128.8445407973053, 35.16276895771321], [128.84455579100074, 35.160162388527006], [128.84335535111134, 35.157986475901104], [128.84093779860572, 35.15878693094204], [128.8374351032348, 35.15925224528541], [128.83616143812304, 35.15906546235401], [128.83405641563576, 35.157351679411256], [128.83252595695203, 35.15690205846786], [128.8299928295354, 35.1571585296545], [128.8283845588824, 35.156528177153625], [128.82801308053266, 35.155757937371526], [128.82584371999317, 35.155778508233375], [128.8227751774597, 35.156515675205505], [128.8224694542267, 35.15736884777804], [128.8158643088159, 35.16037737884785], [128.81144159699525, 35.15997077664146], [128.8086300896849, 35.15899446221812], [128.8059586526544, 35.16049741031874], [128.80215787175047, 35.15935755012914], [128.8017997808973, 35.15851428521027], [128.8007395299092, 35.157960289468804], [128.79805148128054, 35.15789107428255], [128.79705087937813, 35.1587060118424], [128.79402273725665, 35.15793864075243], [128.79361802185085, 35.15705431613537], [128.79617207688645, 35.152553392874864], [128.8013292434723, 35.14674244358397], [128.80233454654334, 35.143152428306315], [128.8066351948314, 35.14094466462561], [128.80695315857352, 35.13925773254252], [128.8082895614055, 35.137875136222746], [128.81544724023152, 35.13256227459942], [128.81805226614065, 35.132374848492965], [128.82415671844794, 35.130441399548886], [128.8264575250699, 35.12949916707722], [128.8265082010393, 35.12889502214651], [128.82729490684417, 35.12817531655748], [128.83025883296403, 35.12828131034993], [128.83203152670478, 35.129530426169715], [128.83297943437026, 35.12964198585838], [128.83356802159656, 35.129189100761835], [128.83413746085253, 35.128430882524526], [128.83439583110464, 35.12630148921657], [128.83624333327998, 35.122687847262576], [128.836254238939, 35.118644160298665], [128.8375602842904, 35.11596659133489], [128.8385119844347, 35.11505457585183], [128.84019423805788, 35.115152418384405], [128.8413798367314, 35.11469055855565], [128.8429403905099, 35.11296974857826], [128.84320513180393, 35.1096885166392], [128.84208109428587, 35.107032098321795], [128.84058878864582, 35.10527184773844], [128.83665582079811, 35.101987753302126], [128.83458609355006, 35.101220884218804], [128.8318073434683, 35.10224893227019], [128.82481457361982, 35.101993774040984], [128.82393608882043, 35.10176771201705], [128.82276319531059, 35.09881611338609], [128.8228845651379, 35.09691695722725], [128.824632256775, 35.094603751786835], [128.83222038786852, 35.088472949180606], [128.83297928355336, 35.08867487926553], [128.8332575496683, 35.08738412075916], [128.83247305545595, 35.0863131507276], [128.8283764260943, 35.089477879444885], [128.82642869611573, 35.0878693930987], [128.82643222931952, 35.08621402148696], [128.8215377015261, 35.08584640500518], [128.82154494191118, 35.084446326015296], [128.81852749290317, 35.083001430939845], [128.80949256161838, 35.08278081783569], [128.80942017623224, 35.081974247467265], [128.83070344561003, 35.080446487298495], [128.83077980982048, 35.07289215565245], [128.8032239906117, 35.065645071549], [128.80561531427782, 35.05977537877952], [128.7988730676862, 35.0574498114908], [128.7979744989265, 35.05940405515366], [128.79598986690166, 35.05890284224201], [128.79681777834804, 35.0540650974687], [128.79692337015447, 35.04979742245495], [128.79746828723452, 35.048714629237296], [128.79954571205099, 35.04750869507303], [128.80480718866568, 35.04759413003725], [128.80584591045707, 35.046994604356165], [128.80614226594838, 35.04495757699825], [128.80691386490923, 35.04384801337138], [128.80894154342332, 35.042976743659835], [128.8120065399028, 35.040160184782664], [128.81243971522514, 35.036602490397286], [128.81179967231228, 35.034649524644855], [128.81074174777925, 35.0333890296102], [128.80796440051878, 35.03394067926123], [128.80759100441452, 35.03372737295773], [128.80829749782845, 35.031393590372254], [128.8094174385087, 35.030164772702854], [128.81321053778342, 35.030343881116856], [128.81426484796546, 35.0298567413357], [128.81500308839898, 35.02897027579476], [128.8152265700156, 35.02772941057552], [128.81465807591968, 35.02528498450575], [128.81329656120187, 35.02420575479165], [128.80683100911884, 35.024978793408174], [128.80423524450245, 35.02391780118984], [128.80580859847552, 35.020595660852464], [128.81056621151518, 35.02170898261228], [128.8111181488002, 35.01874032176329], [128.8182002981405, 35.01795781702883], [128.82451914709353, 35.015240964523315], [128.82602998529185, 35.01378032650728], [128.82493390914152, 35.01075179688678], [128.81987009877855, 35.00972820035606], [128.8193390345179, 35.00897490845581], [128.82341154594323, 35.00705298815826], [128.82358721808606, 35.00569700771545], [128.82243723821495, 35.004868431370014], [128.81832180509014, 35.00484553691456], [128.8181423113676, 35.00138028727874], [128.82173028273147, 35.000819022157664], [128.82199383486488, 34.99878507480212], [128.82127573142535, 34.99422830792057], [128.8235341465075, 34.99402526853426], [128.82797254821034, 34.994719804739205], [128.8296139896939, 34.994525924295296], [128.8291594485349, 34.99258734427661], [128.82790114826327, 34.991506694244634], [128.82692317209728, 34.989153061133436], [128.82731002810795, 34.988047656887], [128.8298898777805, 34.98843173707594], [128.8304359415787, 34.989861443555725], [128.83506374414173, 34.99444371426679], [128.8387079793985, 34.99641860524685], [128.83993246357664, 34.99597715836966], [128.84075884728898, 34.996133797725555], [128.84109005336478, 34.99714378162463], [128.83858738800146, 35.00022668936908], [128.83979231419028, 35.00350720235142], [128.8410585468779, 35.00492593223115], [128.8414049255238, 35.00661233914953], [128.83582470536655, 35.0128829567928], [128.83573349674757, 35.01635086390243], [128.8388934028658, 35.01790920788543], [128.8405456500351, 35.02268338622076], [128.84249395356983, 35.02533574566643], [128.84375686335616, 35.02868360663246], [128.84329189087555, 35.029669348021706], [128.8434200521506, 35.030557125288325], [128.84573336417225, 35.032345886963334], [128.8495487195495, 35.03353340994942], [128.84972606113442, 35.034197996818456], [128.8491519205904, 35.03514093710811], [128.8495506657127, 35.03842679432141], [128.85053965813063, 35.03907900149941], [128.85124570069192, 35.0415860298425], [128.85023066330774, 35.0517886767274], [128.8486101120262, 35.05434903272586], [128.84664349557607, 35.056408424723344], [128.84579547761842, 35.059624277482044], [128.8476165613766, 35.061153550465065], [128.8499679369025, 35.06218538913149], [128.85806766152416, 35.063618633375214], [128.85883950493493, 35.06422960818541], [128.85639502811736, 35.06626886101419], [128.855240456303, 35.06788798678244], [128.85494082481705, 35.06900469472565], [128.85321172059943, 35.06916457310733], [128.8493525474753, 35.06851168507652], [128.84239094743808, 35.06955176290881], [128.8413974256183, 35.0711238348506], [128.84152166089456, 35.0718337172219], [128.84028040653448, 35.07443268863675], [128.83742433370045, 35.075054284291056], [128.83685322975288, 35.0738664252824], [128.83677524801323, 35.06735092289453], [128.8350670252884, 35.066018401091185], [128.83384042034055, 35.06605752399044], [128.83356955482668, 35.066267428925144], [128.83433362728888, 35.06799505760755], [128.83476246476482, 35.08024503937213], [128.8719511530955, 35.08047806394135], [128.87519298393707, 35.0793568770017], [128.87454771693734, 35.06973306475022], [128.86314298697116, 35.06979696664295], [128.86113183781694, 35.071298060558405], [128.8599817709457, 35.071315693974036], [128.85879602061198, 35.0697586196432], [128.86029846429136, 35.06837038699858], [128.87330867608273, 35.06155423147554], [128.88196559420194, 35.06005509004624], [128.88482394033005, 35.06353509740795], [128.88687840958738, 35.079109576392284], [128.89275116620817, 35.09436470172793], [128.90088033184452, 35.118229893876375], [128.90064416208733, 35.119256386360945], [128.9054627609308, 35.11805913018915], [128.9045540932235, 35.115644123843936], [128.9020934344399, 35.11369358266803], [128.9005511755282, 35.11114513978261], [128.900959523367, 35.10797242377286], [128.89939478993824, 35.09929160225298], [128.89776288765117, 35.093084267155305], [128.89537282596655, 35.08681985284577], [128.89532140440446, 35.07914157447694], [128.91217533550352, 35.079463032252136], [128.9121729069662, 35.089365281474244], [128.9219000256033, 35.09268627045527], [128.92535444740878, 35.093411534530844], [128.92678299232878, 35.09535729088144], [128.9286561600111, 35.09912628951176], [128.93290465491427, 35.11028433141648], [128.93685640338123, 35.109884367743234], [128.93903768106512, 35.112901215638175], [128.95687902012088, 35.12730608973392], [128.9614188668208, 35.13943999888083], [128.9595287363413, 35.14923637325415], [128.96242092421272, 35.16348948775276], [128.96264699361532, 35.17290279850197], [128.96201475096996, 35.18198125339427], [128.9655239786972, 35.186458450186386], [128.98206600494177, 35.19649959467478], [128.9866827003981, 35.196032872243855], [128.98818504717465, 35.19723851758359], [128.99178006158067, 35.20096171643757], [128.98928172982468, 35.20250427236374], [128.9958135167809, 35.207936038012726], [128.99760664208236, 35.23438729442228]]]}}, {"type": "Feature", "properties": {"code": "26470", "sgg_nm": "연제구", "dong_count": 12, "label_lon": 129.084955, "label_lat": 35.17911}, "geometry": {"type": "Polygon", "coordinates": [[[129.04768709934498, 35.194205354841635], [129.04697401242035, 35.19185820508527], [129.05096544903554, 35.185797890528434], [129.05203714806433, 35.18477676258272], [129.05396744224095, 35.18432487696533], [129.05664071246315, 35.18446486374092], [129.0612026480533, 35.183892703158996], [129.061656377898, 35.18025331078587], [129.0627278682078, 35.178697763504694], [129.06296520189372, 35.17748983675622], [129.06734108929712, 35.17690107955667], [129.07026728099098, 35.175833357740096], [129.07194289180015, 35.177935657163935], [129.07190730762048, 35.17958722641382], [129.07553767481735, 35.177305052988125], [129.08192432748382, 35.171744974445275], [129.08081055997448, 35.167741894365136], [129.07929423261035, 35.16666806021193], [129.07885434069456, 35.16573285715992], [129.07851942589934, 35.162416696134976], [129.08088515843897, 35.15971082201667], [129.0820334198332, 35.15947867215036], [129.08293072250794, 35.15823841213367], [129.0893935190093, 35.160809261946916], [129.09276629017978, 35.16031717781803], [129.09371244843786, 35.160647318247555], [129.09482351648995, 35.16174060161667], [129.0939412111589, 35.16260233422131], [129.09231959764134, 35.16616723541153], [129.09473477164147, 35.168112465844885], [129.09712904173074, 35.17162735002423], [129.09698570000546, 35.17331371698669], [129.09646211025685, 35.17345509131387], [129.09648095992867, 35.17736305140442], [129.097422891174, 35.17952126940156], [129.10357239514533, 35.180874581791834], [129.10434520589928, 35.180716342627214], [129.10708469186264, 35.17966361776896], [129.10718169002797, 35.17810970782351], [129.10794527160155, 35.17722632455684], [129.10957140145263, 35.1762301635199], [129.11110408065224, 35.17594003614379], [129.1123025738428, 35.17717498420808], [129.11515612736235, 35.18318347003634], [129.11240573054803, 35.1862657275411], [129.11051622168225, 35.18964437792335], [129.10838087354938, 35.19041339155272], [129.1023705514548, 35.190985270951636], [129.08637208925722, 35.194383233683894], [129.08405601660903, 35.19562783030736], [129.08032678260702, 35.19926690530353], [129.07791497787318, 35.199403849158415], [129.0742621369585, 35.19805739598705], [129.0712285541053, 35.19512139594784], [129.06420308058964, 35.19370123928072], [129.06461965061138, 35.19224559539907], [129.05988447404104, 35.19130314259164], [129.05576764418285, 35.19237489372974], [129.0530596726225, 35.19207988548005], [129.04768709934498, 35.194205354841635]]]}}, {"type": "Feature", "properties": {"code": "26500", "sgg_nm": "수영구", "dong_count": 10, "label_lon": 129.113395, "label_lat": 35.16142}, "geometry": {"type": "Polygon", "coordinates": [[[129.1303239315999, 35.147985067951566], [129.11998286513546, 35.13765895881031], [129.11842056766713, 35.137056056527406], [129.11199066268026, 35.13637543325397], [129.11430412470793, 35.138590132471975], [129.11445576150095, 35.13813116392998], [129.11402602889032, 35.13753025037882], [129.11361272229686, 35.137564293204036], [129.11417371645706, 35.137339779493345], [129.11560909953937, 35.13954519940607], [129.1177438963802, 35.13984403690082], [129.11776580643354, 35.14598165730247], [129.11555095394763, 35.14618902642126], [129.1151366034389, 35.14798729734683], [129.11590419569734, 35.14968952477852], [129.11812653079724, 35.152490142635834], [129.12011344688662, 35.153892648565616], [129.1223271248991, 35.154560509783884], [129.12374165824045, 35.15449742126597], [129.1245258099203, 35.15233418027719], [129.1273999513482, 35.152454447098044], [129.1343682592253, 35.15470749908686], [129.1352802403618, 35.15566208849128], [129.1352124329799, 35.15664143586604], [129.13113928599338, 35.16113262127219], [129.13245262337935, 35.161707657975136], [129.13095017811176, 35.16328892553498], [129.1265833212837, 35.16602617330569], [129.12317120085623, 35.171051876632454], [129.12249905533562, 35.1730217184355], [129.119258917037, 35.17675110664881], [129.119261930982, 35.178500453951436], [129.1184497281304, 35.18178225401597], [129.11551643510097, 35.18783048750806], [129.11515612736235, 35.18318347003634], [129.1123025738428, 35.17717498420808], [129.11110408065224, 35.17594003614379], [129.10957140145263, 35.1762301635199], [129.10794527160155, 35.17722632455684], [129.10718169002797, 35.17810970782351], [129.10708469186264, 35.17966361776896], [129.10434520589928, 35.180716342627214], [129.10357239514533, 35.180874581791834], [129.097422891174, 35.17952126940156], [129.09648095992867, 35.17736305140442], [129.09646211025685, 35.17345509131387], [129.09698570000546, 35.17331371698669], [129.09712904173074, 35.17162735002423], [129.09473477164147, 35.168112465844885], [129.09231959764134, 35.16616723541153], [129.0939412111589, 35.16260233422131], [129.09482351648995, 35.16174060161667], [129.0982340519225, 35.155340560923136], [129.1016414105136, 35.150693546686554], [129.10334244447125, 35.14576404338582], [129.10341169818932, 35.144359311918144], [129.10231680476866, 35.1428026922264], [129.1048844310384, 35.14020888216203], [129.11181015089383, 35.135477062726224], [129.1184371353254, 35.136547359106956], [129.12098324072193, 35.13772493745789], [129.1307458582595, 35.14771373119066], [129.1303239315999, 35.147985067951566]]]}}, {"type": "Feature", "properties": {"code": "26530", "sgg_nm": "사상구", "dong_count": 12, "label_lon": 128.98716, "label_lat": 35.158408}, "geometry": {"type": "Polygon", "coordinates": [[[128.95687902012088, 35.12730608973392], [128.9582558418523, 35.123086602851465], [128.95990797566617, 35.12027791220839], [128.9615002451909, 35.119911661728935], [128.96314635016054, 35.12015636125776], [128.96371102885962, 35.12172427155547], [128.9688955643479, 35.120917048736004], [128.9763030133134, 35.116798036379514], [128.97982418517978, 35.1167540714929], [128.98152764638243, 35.118107061820275], [128.9818915032444, 35.11936390892188], [128.98673530902727, 35.12313275534385], [128.98768908147932, 35.12492769978295], [128.9902410767688, 35.12358687791466], [128.99796856024992, 35.12254815787114], [128.9984364338778, 35.124674673858074], [128.99960902451832, 35.12585049850773], [129.00160075083318, 35.12650059096157], [129.0022473982334, 35.12742898655021], [129.0029509525376, 35.13492983407354], [129.00451760683498, 35.1395132926308], [129.00657510711716, 35.13939482809143], [129.01132236660203, 35.13818912292582], [129.01309770220325, 35.138716019297384], [129.01614903457846, 35.142240310374774], [129.01567789151815, 35.14692635804637], [129.01619424245249, 35.148249576671134], [129.01667393801887, 35.15281118273201], [129.01594406761035, 35.15571202634452], [129.01522085159675, 35.15666168272065], [129.0106414375882, 35.160154222405225], [129.01102514991956, 35.162724140046876], [129.01284353539765, 35.16567416154622], [129.01169902395307, 35.1673751990749], [129.01170244925513, 35.16880581176889], [129.01009003820303, 35.17035940934349], [129.01017323862936, 35.17360665196828], [129.01138299083289, 35.17411431954438], [129.017860201483, 35.17932587505381], [129.01952145131978, 35.179856428792796], [129.02149994647763, 35.17831970499822], [129.0225151278537, 35.17911186863452], [129.02363801738082, 35.1809168091243], [129.0238044237239, 35.183040099717886], [129.02174892241595, 35.18351552150814], [129.02114382379534, 35.187751167562425], [129.01937893982827, 35.18777817432737], [129.01599056537117, 35.18930747563812], [129.0082600286448, 35.189007483327195], [129.00720712199106, 35.190451863483986], [129.00769630669944, 35.19249831429592], [129.00171348937323, 35.19280614737444], [129.00060713934948, 35.19166289835499], [128.9982073183999, 35.19230153181104], [128.99547822703062, 35.19385724280257], [128.9949559413762, 35.19479260661552], [128.99391935025963, 35.195261479659656], [128.99111562695626, 35.19382240168314], [128.987946053341, 35.1959047485512], [128.98818504717465, 35.19723851758359], [128.9866827003981, 35.196032872243855], [128.98206600494177, 35.19649959467478], [128.9655239786972, 35.186458450186386], [128.96201475096996, 35.18198125339427], [128.96264699361532, 35.17290279850197], [128.96242092421272, 35.16348948775276], [128.9595287363413, 35.14923637325415], [128.9614188668208, 35.13943999888083], [128.95687902012088, 35.12730608973392]]]}}, {"type": "Feature", "properties": {"code": "26710", "sgg_nm": "기장군", "dong_count": 5, "label_lon": 129.193154, "label_lat": 35.285291}, "geometry": {"type": "Polygon", "coordinates": [[[129.20792222656215, 35.181944959030275], [129.21082883448267, 35.18244933205326], [129.2108469565905, 35.18168396837589], [129.2128068196733, 35.18088314949448], [129.21390979669724, 35.184305653951235], [129.21393052928497, 35.18507030059377], [129.21336266847138, 35.185622588865954], [129.21467019152536, 35.18655496649767], [129.217772822997, 35.18633882817605], [129.2181231090551, 35.18492985587415], [129.2189152873854, 35.18405469120328], [129.22026328395893, 35.18361559249503], [129.2247504041364, 35.185732738234194], [129.22503788584214, 35.18630123406033], [129.22381723034465, 35.18998942498937], [129.22573360027178, 35.19186680950439], [129.2273106452157, 35.19269847114456], [129.23015233418576, 35.19572537761114], [129.23182536108044, 35.20147183985178], [129.23006077843533, 35.20426539757562], [129.2332332279117, 35.21447461013801], [129.2307335042802, 35.219248887083346], [129.22852620537046, 35.2193326787483], [129.2284587450895, 35.2207144442862], [129.2305396156465, 35.221634667941345], [129.23123359376578, 35.2206778755276], [129.23584348219362, 35.2194997981376], [129.23892287575103, 35.22052141768926], [129.24234194474556, 35.226239074302185], [129.24210153657867, 35.227063214425776], [129.2410747002677, 35.22798819516371], [129.24168042504817, 35.228969232858965], [129.24545697683118, 35.23045233409942], [129.24573893360193, 35.23113734836924], [129.24510790752163, 35.23497127743591], [129.2457446471245, 35.23707338814666], [129.24681553846068, 35.2377437682431], [129.2485604303096, 35.23995471165689], [129.24803184362912, 35.24177645865111], [129.248284861805, 35.24331056908489], [129.25185314205436, 35.244624398626655], [129.25337576324543, 35.24666823722878], [129.25335886393606, 35.25017481443241], [129.25202426085662, 35.255216097575286], [129.2521419964377, 35.25593550583784], [129.2535677008816, 35.256790904818644], [129.25263428468577, 35.25958774569401], [129.2519668852276, 35.26021484476957], [129.24784404847935, 35.25964383766041], [129.24420659082318, 35.26022535916653], [129.24212835807532, 35.259355203114715], [129.23950154096718, 35.257506316628664], [129.23634986409678, 35.257912035665385], [129.23544980330215, 35.25838300025871], [129.23449775104808, 35.25933597711529], [129.23395436167215, 35.26092282580708], [129.23409245511652, 35.26239017756238], [129.2361217448025, 35.26472688263638], [129.24167669483884, 35.26499713462494], [129.24288105771697, 35.264511069388526], [129.24276272162504, 35.263787433234604], [129.2430999495172, 35.26363641431184], [129.24424241219822, 35.26638097172942], [129.24452260053792, 35.267856788650484], [129.24380648057831, 35.26952235181062], [129.2440609819999, 35.270855891326065], [129.24466969979184, 35.271611871590345], [129.24650306845552, 35.2725592315576], [129.25033978699176, 35.27167649321137], [129.25101643855191, 35.27134271731099], [129.25125833795332, 35.270642341688344], [129.25290604275267, 35.271173727395855], [129.2554721896837, 35.274203915430256], [129.2558661347657, 35.27545452936355], [129.2553608760819, 35.27607955730518], [129.2557355148967, 35.278989968400616], [129.25658283888268, 35.280098302001925], [129.25753924261423, 35.28042840506961], [129.25880653663472, 35.28019063986813], [129.26047307465416, 35.28139070495385], [129.26028288492404, 35.282741155837826], [129.25753026312086, 35.28758269237369], [129.26030900354343, 35.289411507253945], [129.26135585882778, 35.29057738025125], [129.26186273947522, 35.29371323266501], [129.26374044657584, 35.296059368603245], [129.26413076745183, 35.298842548770175], [129.26387781107258, 35.299211430025245], [129.26326444568824, 35.29908231937517], [129.26213098086535, 35.29764113912545], [129.26140328947906, 35.29750258851639], [129.2606046161535, 35.29899115510065], [129.25855952233442, 35.30603370752107], [129.26139412544342, 35.30954296402618], [129.2617626474179, 35.30939103645163], [129.26295449610078, 35.31515880664624], [129.26527656158805, 35.31910848413057], [129.27121926130476, 35.322749820958585], [129.27400347410006, 35.32327485218398], [129.27756806973872, 35.324692382010845], [129.27713474958745, 35.325401612673964], [129.28185130949086, 35.326591128579196], [129.2844638494272, 35.326376844224626], [129.28474248588822, 35.32373223499026], [129.2879502101082, 35.323217985694626], [129.28769084456485, 35.32116093406101], [129.28651013730413, 35.320358483090736], [129.28967060537943, 35.31815424049439], [129.29064537668606, 35.318795616147725], [129.29903916620975, 35.31826517729175], [129.30181624655165, 35.320315552366914], [129.30265183212205, 35.321371878147374], [129.30042099596926, 35.32261025497123], [129.30229451177811, 35.32830683671521], [129.3035866852017, 35.329478153666905], [129.3045309283998, 35.32951391038803], [129.30336082386629, 35.33166504327292], [129.30087518247925, 35.33424367115649], [129.29983893225096, 35.33495302674761], [129.297704848088, 35.33553116371195], [129.29317930497774, 35.33594681619926], [129.29206012488774, 35.336537539993564], [129.290891493882, 35.33865667186572], [129.28917369098042, 35.340209955742175], [129.28660067752443, 35.33997396547664], [129.2854979915518, 35.339204617883816], [129.28245825722604, 35.33979986290561], [129.2798561764195, 35.34151435380756], [129.2818811308656, 35.342975396729614], [129.283767706476, 35.34567863307003], [129.28456249504035, 35.35075587089275], [129.28447656478127, 35.352270059450795], [129.28345841552445, 35.35344409572167], [129.28243841201513, 35.35390594230149], [129.28057117776203, 35.35610662663765], [129.28098594219477, 35.36047767101272], [129.28350875658538, 35.36271420228059], [129.28318077509877, 35.365225130019454], [129.27971044445923, 35.36578301657527], [129.27671199554348, 35.37240123489039], [129.2715828676475, 35.377845045492215], [129.26826914763018, 35.379906149134506], [129.26527076472655, 35.38647176283808], [129.25994679161138, 35.38464046966929], [129.25663110099802, 35.384789973531234], [129.25508512168534, 35.38552753250199], [129.254514532656, 35.38647588615317], [129.25200357605692, 35.38721497510539], [129.2509073016447, 35.38679911262726], [129.25079059455962, 35.3861508433363], [129.2511959790786, 35.38572335541012], [129.25039156148497, 35.38375884545871], [129.24920193352534, 35.38348822969169], [129.24735996356802, 35.38473782192817], [129.241643078168, 35.3856979395993], [129.23669419295197, 35.382265142869905], [129.23563579756603, 35.380307717934315], [129.23369256734074, 35.380603662405534], [129.2311959140502, 35.381614901407445], [129.22408130733706, 35.380054160476924], [129.22267108895582, 35.379407415893716], [129.21772140923156, 35.37867306903836], [129.2087084758063, 35.38117127544707], [129.2033959549884, 35.385153719966716], [129.20287457373115, 35.387983865034386], [129.2005262441342, 35.388665963546075], [129.1945080609123, 35.38374859783469], [129.19372060594884, 35.38204601664023], [129.19452457499438, 35.380389574583006], [129.19581986084575, 35.37982193179194], [129.19867710591515, 35.37703730904557], [129.19937257235028, 35.37562276302689], [129.19809249227688, 35.36921553472803], [129.19358066827675, 35.361005268039904], [129.19035765768228, 35.35948687448637], [129.18947875859308, 35.35976167094222], [129.18558363506247, 35.358174568043474], [129.182278768853, 35.355180185220064], [129.18162821210694, 35.35365088061756], [129.17807634762252, 35.35144181357127], [129.17453350862533, 35.35146553499884], [129.16745889906628, 35.35405784840856], [129.16255296880328, 35.356364200393614], [129.1621627033034, 35.3568763219406], [129.1623925114315, 35.35804822071152], [129.16178733109066, 35.358784137752956], [129.1572530695011, 35.359003627990006], [129.15415347891644, 35.36080563063193], [129.15308899095132, 35.36254045364098], [129.14987598922698, 35.36384081685269], [129.14836291938568, 35.36416552611346], [129.14634788909308, 35.36388468971426], [129.14141914497264, 35.36494660986696], [129.13850643374843, 35.3660814782531], [129.13406590671633, 35.36552200128969], [129.13140274084756, 35.365647648850725], [129.13058923361965, 35.36429814923641], [129.12956356985066, 35.35916489150047], [129.13195701874554, 35.35716189705289], [129.13471015502867, 35.35306295888204], [129.1345724702276, 35.3514110674071], [129.13326725520682, 35.350001630249764], [129.12965567375034, 35.34873575262078], [129.1273691961121, 35.345671406633464], [129.1272707899206, 35.345044049822675], [129.1283373748687, 35.34321253704455], [129.12604157271775, 35.34132511561375], [129.12503250832583, 35.33630276764013], [129.12621344579614, 35.33373229820285], [129.1259959011558, 35.33221770413539], [129.12467065518163, 35.33073395154139], [129.12087486299632, 35.32891818019736], [129.11933292847897, 35.32382274749584], [129.11847606676884, 35.32246347291058], [129.11330955232535, 35.31949516260384], [129.1120806307746, 35.316152545760936], [129.11164595207669, 35.308769606804574], [129.11097579776109, 35.30661032919354], [129.1089184004478, 35.305068397078145], [129.11601776526172, 35.30218221244042], [129.12083475858412, 35.30193077171007], [129.1221996117302, 35.30150225345867], [129.1296640671979, 35.29800227229718], [129.1298754556232, 35.297588464235744], [129.12982913025536, 35.29033234100405], [129.12640585268923, 35.282999800521075], [129.12392570269233, 35.28040703340495], [129.12419620349647, 35.279476649868904], [129.12513646646565, 35.27840624844063], [129.12542570172567, 35.27672189588661], [129.12439252090897, 35.273322244739305], [129.12201561317232, 35.270832802578305], [129.12137055456571, 35.2695878031311], [129.1193757241296, 35.2621990470576], [129.12008273243816, 35.26031155040715], [129.1224637721463, 35.26153233707611], [129.1260057101869, 35.2619048939383], [129.13020504703502, 35.26005010839832], [129.13642782163583, 35.25942826708823], [129.13940459689405, 35.26035272353695], [129.1408600692582, 35.26017905792926], [129.14112584754795, 35.259433376603134], [129.14000945199842, 35.25715684534395], [129.13923516551816, 35.25415543112416], [129.14428701915543, 35.25072721185762], [129.1468404501671, 35.24939928671586], [129.14811870309077, 35.247270347106166], [129.1499596651317, 35.24761368700551], [129.15496231726954, 35.24505499361861], [129.15569070203927, 35.24327102192388], [129.15513091694905, 35.237010450810004], [129.15794728542687, 35.23534553754519], [129.16163548896114, 35.23393790292121], [129.16734760118234, 35.229677721426185], [129.16926998030365, 35.227668744179134], [129.16951380195485, 35.226088760509214], [129.16640185179898, 35.22083683167936], [129.1662144143843, 35.21846920908729], [129.16474023869512, 35.214936315012125], [129.16203139313677, 35.21256264896425], [129.16045481295413, 35.21183722750348], [129.15975925916305, 35.20969256606286], [129.16026027283183, 35.20629311485381], [129.1629818543271, 35.20597220737831], [129.16425470000857, 35.2048478062906], [129.16504002215248, 35.20311132372167], [129.16936951017513, 35.200984167907514], [129.1724720972387, 35.20202302077535], [129.1796338664037, 35.197900141902345], [129.18262012826793, 35.19798385738416], [129.18564304115662, 35.195486684932334], [129.1833225600009, 35.19072035829853], [129.1837791328208, 35.189719930277654], [129.1881888766853, 35.18933556689751], [129.18904466404177, 35.18995761388205], [129.19081052450375, 35.19291493859557], [129.19351988964092, 35.195069859231694], [129.19385862770395, 35.19810861708671], [129.19687434366918, 35.20032305102213], [129.19838813643153, 35.200834159026975], [129.1994508641014, 35.20068735078913], [129.20426157246294, 35.19832982703446], [129.20666744753996, 35.19705395610579], [129.20744897908023, 35.19455919636432], [129.20631738263685, 35.19127882044517], [129.20689238417373, 35.185870877075324], [129.20792222656215, 35.181944959030275]]]}}]}